[{"OBJECT_NAME":"STARLINK-2114","OBJECT_ID":"2021-005AW","EPOCH":"2026-03-09T22:00:01.999584","MEAN_MOTION":15.6571157,"ECCENTRICITY":0.00014457,"INCLINATION":53.0461,"RA_OF_ASC_NODE":342.7454,"ARG_OF_PERICENTER":133.5474,"MEAN_ANOMALY":327.8029,"EPHEMERIS_TYPE":0,"CLASSIFICATION_TYPE":"U","NORAD_CAT_ID":47393,"ELEMENT_SET_NO":999,"REV_AT_EPOCH":586,"BSTAR":0.00048635104,"MEAN_MOTION_DOT":0.00049811,"MEAN_MOTION_DDOT":0},{"OBJECT_NAME":"STARLINK-36694","OBJECT_ID":"2026-022F","EPOCH":"2026-03-09T22:00:01.999584","MEAN_MOTION":15.72360469,"ECCENTRICITY":0.00015317,"INCLINATION":97.2843,"RA_OF_ASC_NODE":102.9045,"ARG_OF_PERICENTER":71.9582,"MEAN_ANOMALY":320.2172,"EPHEMERIS_TYPE":0,"CLASSIFICATION_TYPE":"U","NORAD_CAT_ID":67653,"ELEMENT_SET_NO":999,"REV_AT_EPOCH":607,"BSTAR":-0.016435758,"MEAN_MOTION_DOT":-0.01891106,"MEAN_MOTION_DDOT":0}]
